CCSDS_OMM_VERS = 2.0
CREATION_DATE  = 
ORIGINATOR     = 

OBJECT_NAME    = STARLINK-36078
OBJECT_ID      = 2025-294W
CENTER_NAME    = EARTH
REF_FRAME      = TEME
TIME_SYSTEM    = UTC
MEAN_ELEMENT_THEORY = SGP/SGP4

EPOCH          = 2026-01-01T04:00:01.998720
MEAN_MOTION    = 15.50567050
ECCENTRICITY   = .0001331
INCLINATION    = 43.0006
RA_OF_ASC_NODE = 64.7198
ARG_OF_PERICENTER = 255.7920
MEAN_ANOMALY   = 14.2373

EPHEMERIS_TYPE = 0
CLASSIFICATION_TYPE = U
NORAD_CAT_ID   = 67050
ELEMENT_SET_NO = 999
REV_AT_EPOCH   = 333
BSTAR          = -.21368E-2
MEAN_MOTION_DOT = -.123682E-2
MEAN_MOTION_DDOT = 0

CCSDS_OMM_VERS = 2.0
CREATION_DATE  = 
ORIGINATOR     = 

OBJECT_NAME    = STARLINK-35706
OBJECT_ID      = 2025-294X
CENTER_NAME    = EARTH
REF_FRAME      = TEME
TIME_SYSTEM    = UTC
MEAN_ELEMENT_THEORY = SGP/SGP4

EPOCH          = 2026-01-01T04:00:01.998720
MEAN_MOTION    = 15.50600520
ECCENTRICITY   = .000138
INCLINATION    = 43.0006
RA_OF_ASC_NODE = 64.7147
ARG_OF_PERICENTER = 263.2697
MEAN_ANOMALY   = 8.6248

EPHEMERIS_TYPE = 0
CLASSIFICATION_TYPE = U
NORAD_CAT_ID   = 67051
ELEMENT_SET_NO = 999
REV_AT_EPOCH   = 341
BSTAR          = -.12526E-2
MEAN_MOTION_DOT = -.732E-3
MEAN_MOTION_DDOT = 0

CCSDS_OMM_VERS = 2.0
CREATION_DATE  = 
ORIGINATOR     = 

OBJECT_NAME    = STARLINK-35720
OBJECT_ID      = 2025-294Y
CENTER_NAME    = EARTH
REF_FRAME      = TEME
TIME_SYSTEM    = UTC
MEAN_ELEMENT_THEORY = SGP/SGP4

EPOCH          = 2026-01-01T04:00:01.998720
MEAN_MOTION    = 15.50597516
ECCENTRICITY   = .0001309
INCLINATION    = 43.0008
RA_OF_ASC_NODE = 64.7109
ARG_OF_PERICENTER = 259.1458
MEAN_ANOMALY   = 14.6663

EPHEMERIS_TYPE = 0
CLASSIFICATION_TYPE = U
NORAD_CAT_ID   = 67052
ELEMENT_SET_NO = 999
REV_AT_EPOCH   = 340
BSTAR          = -.13128E-2
MEAN_MOTION_DOT = -.7666E-3
MEAN_MOTION_DDOT = 0

CCSDS_OMM_VERS = 2.0
CREATION_DATE  = 
ORIGINATOR     = 

OBJECT_NAME    = STARLINK-35739
OBJECT_ID      = 2025-294Z
CENTER_NAME    = EARTH
REF_FRAME      = TEME
TIME_SYSTEM    = UTC
MEAN_ELEMENT_THEORY = SGP/SGP4

EPOCH          = 2026-01-01T04:00:01.998720
MEAN_MOTION    = 15.50595818
ECCENTRICITY   = .0001458
INCLINATION    = 43.0009
RA_OF_ASC_NODE = 64.7057
ARG_OF_PERICENTER = 263.9441
MEAN_ANOMALY   = 11.7799

EPHEMERIS_TYPE = 0
CLASSIFICATION_TYPE = U
NORAD_CAT_ID   = 67053
ELEMENT_SET_NO = 999
REV_AT_EPOCH   = 306
BSTAR          = -.10422E-2
MEAN_MOTION_DOT = -.61041E-3
MEAN_MOTION_DDOT = 0

CCSDS_OMM_VERS = 2.0
CREATION_DATE  = 
ORIGINATOR     = 

OBJECT_NAME    = STARLINK-35754
OBJECT_ID      = 2025-294AA
CENTER_NAME    = EARTH
REF_FRAME      = TEME
TIME_SYSTEM    = UTC
MEAN_ELEMENT_THEORY = SGP/SGP4

EPOCH          = 2026-01-01T04:00:01.998720
MEAN_MOTION    = 15.50609488
ECCENTRICITY   = .0001405
INCLINATION    = 43.0006
RA_OF_ASC_NODE = 64.7005
ARG_OF_PERICENTER = 257.0768
MEAN_ANOMALY   = 20.5650

EPHEMERIS_TYPE = 0
CLASSIFICATION_TYPE = U
NORAD_CAT_ID   = 67054
ELEMENT_SET_NO = 999
REV_AT_EPOCH   = 322
BSTAR          = -.15037E-2
MEAN_MOTION_DOT = -.87672E-3
MEAN_MOTION_DDOT = 0

CCSDS_OMM_VERS = 2.0
CREATION_DATE  = 
ORIGINATOR     = 

OBJECT_NAME    = STARLINK-35790
OBJECT_ID      = 2025-294AB
CENTER_NAME    = EARTH
REF_FRAME      = TEME
TIME_SYSTEM    = UTC
MEAN_ELEMENT_THEORY = SGP/SGP4

EPOCH          = 2026-01-01T04:00:01.998720
MEAN_MOTION    = 15.50605071
ECCENTRICITY   = .0001421
INCLINATION    = 43.0004
RA_OF_ASC_NODE = 64.6946
ARG_OF_PERICENTER = 262.1354
MEAN_ANOMALY   = 17.4263

EPHEMERIS_TYPE = 0
CLASSIFICATION_TYPE = U
NORAD_CAT_ID   = 67055
ELEMENT_SET_NO = 999
REV_AT_EPOCH   = 341
BSTAR          = -.13817E-2
MEAN_MOTION_DOT = -.80642E-3
MEAN_MOTION_DDOT = 0

CCSDS_OMM_VERS = 2.0
CREATION_DATE  = 
ORIGINATOR     = 

OBJECT_NAME    = STARLINK-36143
OBJECT_ID      = 2025-294AC
CENTER_NAME    = EARTH
REF_FRAME      = TEME
TIME_SYSTEM    = UTC
MEAN_ELEMENT_THEORY = SGP/SGP4

EPOCH          = 2026-01-01T04:00:01.998720
MEAN_MOTION    = 15.50613816
ECCENTRICITY   = .0001328
INCLINATION    = 43.0004
RA_OF_ASC_NODE = 64.6798
ARG_OF_PERICENTER = 263.5348
MEAN_ANOMALY   = 21.7730

EPHEMERIS_TYPE = 0
CLASSIFICATION_TYPE = U
NORAD_CAT_ID   = 67056
ELEMENT_SET_NO = 999
REV_AT_EPOCH   = 342
BSTAR          = -.16199E-2
MEAN_MOTION_DOT = -.94355E-3
MEAN_MOTION_DDOT = 0

CCSDS_OMM_VERS = 2.0
CREATION_DATE  = 
ORIGINATOR     = 

OBJECT_NAME    = STARLINK-36141
OBJECT_ID      = 2025-294AD
CENTER_NAME    = EARTH
REF_FRAME      = TEME
TIME_SYSTEM    = UTC
MEAN_ELEMENT_THEORY = SGP/SGP4

EPOCH          = 2026-01-01T04:00:01.998720
MEAN_MOTION    = 15.50615248
ECCENTRICITY   = .0001422
INCLINATION    = 43.0004
RA_OF_ASC_NODE = 64.6850
ARG_OF_PERICENTER = 258.9942
MEAN_ANOMALY   = 24.3947

EPHEMERIS_TYPE = 0
CLASSIFICATION_TYPE = U
NORAD_CAT_ID   = 67057
ELEMENT_SET_NO = 999
REV_AT_EPOCH   = 333
BSTAR          = -.16227E-2
MEAN_MOTION_DOT = -.94518E-3
MEAN_MOTION_DDOT = 0

CCSDS_OMM_VERS = 2.0
CREATION_DATE  = 
ORIGINATOR     = 

OBJECT_NAME    = STARLINK-35767
OBJECT_ID      = 2025-294AE
CENTER_NAME    = EARTH
REF_FRAME      = TEME
TIME_SYSTEM    = UTC
MEAN_ELEMENT_THEORY = SGP/SGP4

EPOCH          = 2026-01-01T04:00:01.998720
MEAN_MOTION    = 15.50610283
ECCENTRICITY   = .0001164
INCLINATION    = 43.0007
RA_OF_ASC_NODE = 64.6902
ARG_OF_PERICENTER = 257.9158
MEAN_ANOMALY   = 23.5627

EPHEMERIS_TYPE = 0
CLASSIFICATION_TYPE = U
NORAD_CAT_ID   = 67058
ELEMENT_SET_NO = 999
REV_AT_EPOCH   = 322
BSTAR          = -.16581E-2
MEAN_MOTION_DOT = -.96528E-3
MEAN_MOTION_DDOT = 0

CCSDS_OMM_VERS = 2.0
CREATION_DATE  = 
ORIGINATOR     = 

OBJECT_NAME    = HULIANWANG DIGUI-119
OBJECT_ID      = 2025-295A
CENTER_NAME    = EARTH
REF_FRAME      = TEME
TIME_SYSTEM    = UTC
MEAN_ELEMENT_THEORY = SGP/SGP4

EPOCH          = 2026-01-01T03:06:18.336960
MEAN_MOTION    = 14.24623599
ECCENTRICITY   = .0013926
INCLINATION    = 50.0044
RA_OF_ASC_NODE = 290.4724
ARG_OF_PERICENTER = 315.0273
MEAN_ANOMALY   = 44.9512

EPHEMERIS_TYPE = 0
CLASSIFICATION_TYPE = U
NORAD_CAT_ID   = 67059
ELEMENT_SET_NO = 999
REV_AT_EPOCH   = 288
BSTAR          = .27905E-3
MEAN_MOTION_DOT = .494E-5
MEAN_MOTION_DDOT = 0

CCSDS_OMM_VERS = 2.0
CREATION_DATE  = 
ORIGINATOR     = 

OBJECT_NAME    = HULIANWANG DIGUI-120
OBJECT_ID      = 2025-295B
CENTER_NAME    = EARTH
REF_FRAME      = TEME
TIME_SYSTEM    = UTC
MEAN_ELEMENT_THEORY = SGP/SGP4

EPOCH          = 2026-01-01T02:59:16.108800
MEAN_MOTION    = 14.24625285
ECCENTRICITY   = .0013295
INCLINATION    = 50.0052
RA_OF_ASC_NODE = 290.4472
ARG_OF_PERICENTER = 315.6567
MEAN_ANOMALY   = 44.3281

EPHEMERIS_TYPE = 0
CLASSIFICATION_TYPE = U
NORAD_CAT_ID   = 67060
ELEMENT_SET_NO = 999
REV_AT_EPOCH   = 288
BSTAR          = .29874E-3
MEAN_MOTION_DOT = .54E-5
MEAN_MOTION_DDOT = 0

CCSDS_OMM_VERS = 2.0
CREATION_DATE  = 
ORIGINATOR     = 

OBJECT_NAME    = HULIANWANG DIGUI-121
OBJECT_ID      = 2025-295C
CENTER_NAME    = EARTH
REF_FRAME      = TEME
TIME_SYSTEM    = UTC
MEAN_ELEMENT_THEORY = SGP/SGP4

EPOCH          = 2026-01-01T03:01:48.687744
MEAN_MOTION    = 14.24642131
ECCENTRICITY   = .0013202
INCLINATION    = 50.0015
RA_OF_ASC_NODE = 290.4424
ARG_OF_PERICENTER = 314.8751
MEAN_ANOMALY   = 45.1089

EPHEMERIS_TYPE = 0
CLASSIFICATION_TYPE = U
NORAD_CAT_ID   = 67061
ELEMENT_SET_NO = 999
REV_AT_EPOCH   = 288
BSTAR          = .29362E-3
MEAN_MOTION_DOT = .528E-5
MEAN_MOTION_DDOT = 0

