STARLINK-36078          
1 67050U 25294W   26001.16668980 -.00123682  00000+0 -21368-2 0  9998
2 67050  43.0006  64.7198 0001331 255.7920  14.2373 15.50567050  3339
STARLINK-35706          
1 67051U 25294X   26001.16668980 -.00073200  00000+0 -12526-2 0  9995
2 67051  43.0006  64.7147 0001380 263.2697   8.6248 15.50600520  3410
STARLINK-35720          
1 67052U 25294Y   26001.16668980 -.00076660  00000+0 -13128-2 0  9998
2 67052  43.0008  64.7109 0001309 259.1458  14.6663 15.50597516  3408
STARLINK-35739          
1 67053U 25294Z   26001.16668980 -.00061041  00000+0 -10422-2 0  9990
2 67053  43.0009  64.7057 0001458 263.9441  11.7799 15.50595818  3065
STARLINK-35754          
1 67054U 25294AA  26001.16668980 -.00087672  00000+0 -15037-2 0  9996
2 67054  43.0006  64.7005 0001405 257.0768  20.5650 15.50609488  3225
STARLINK-35790          
1 67055U 25294AB  26001.16668980 -.00080642  00000+0 -13817-2 0  9991
2 67055  43.0004  64.6946 0001421 262.1354  17.4263 15.50605071  3413
STARLINK-36143          
1 67056U 25294AC  26001.16668980 -.00094355  00000+0 -16199-2 0  9994
2 67056  43.0004  64.6798 0001328 263.5348  21.7730 15.50613816  3427
STARLINK-36141          
1 67057U 25294AD  26001.16668980 -.00094518  00000+0 -16227-2 0  9998
2 67057  43.0004  64.6850 0001422 258.9942  24.3947 15.50615248  3330
STARLINK-35767          
1 67058U 25294AE  26001.16668980 -.00096528  00000+0 -16581-2 0  9995
2 67058  43.0007  64.6902 0001164 257.9158  23.5627 15.50610283  3221
HULIANWANG DIGUI-119    
1 67059U 25295A   26001.12937890  .00000494  00000+0  27905-3 0  9990
2 67059  50.0044 290.4724 0013926 315.0273  44.9512 14.24623599  2880
HULIANWANG DIGUI-120    
1 67060U 25295B   26001.12449200  .00000540  00000+0  29874-3 0  9994
2 67060  50.0052 290.4472 0013295 315.6567  44.3281 14.24625285  2883
HULIANWANG DIGUI-121    
1 67061U 25295C   26001.12625796  .00000528  00000+0  29362-3 0  9999
2 67061  50.0015 290.4424 0013202 314.8751  45.1089 14.24642131  2888
